STARLINK-31495          
1 59313U 24056T   26068.46122597 -.00001484  00000+0 -44413-4 0  9994
2 59313  43.0007 224.6995 0001284 269.6644  90.4060 15.27571993111209
YAM-7                   
1 60504U 24149AN  26068.71799904  .00009009  00000+0  30984-3 0  9997
2 60504  97.3828 149.4631 0001973 296.5121  63.5918 15.30304554 86835
